{"type":"FeatureCollection","features":[{"type":"Feature","properties":{"class":"college","name":"Colégio Diocesano La Salle"},"geometry":{"type":"Polygon","coordinates":[[[-47.902766,-22.022075],[-47.903082,-22.020441],[-47.902081,-22.020479],[-47.901443,-22.020645],[-47.901345,-22.021877],[-47.902766,-22.022075]]]}},{"type":"Feature","properties":{"class":"college","name":"ETEC Paulino Botelho"},"geometry":{"type":"Polygon","coordinates":[[[-47.879343,-22.014067],[-47.879294,-22.014066],[-47.879245,-22.014066],[-47.879,-22.014067],[-47.878996,-22.014388],[-47.878996,-22.014858],[-47.879866,-22.014863],[-47.879871,-22.01407],[-47.879343,-22.014067]]]}},{"type":"Feature","properties":{"class":"college","name":"Instituto de Educação e Cultura Educativa"},"geometry":{"type":"Polygon","coordinates":[[[-47.871118,-22.025846],[-47.870892,-22.02537],[-47.870157,-22.02491],[-47.868676,-22.026426],[-47.868875,-22.026679],[-47.868898,-22.026709],[-47.869244,-22.027151],[-47.869267,-22.027181],[-47.871118,-22.025846]]]}},{"type":"Feature","properties":{"class":"college","name":"Senac São Carlos"},"geometry":{"type":"Polygon","coordinates":[[[-47.891509,-22.025792],[-47.891515,-22.025121],[-47.891521,-22.024343],[-47.891036,-22.02434],[-47.891024,-22.025788],[-47.891509,-22.025792]]]}},{"type":"Feature","properties":{"class":"college","name":"SENAI São Carlos - Bloco 1"},"geometry":{"type":"Polygon","coordinates":[[[-47.897075,-22.022907],[-47.896407,-22.02355],[-47.897148,-22.023994],[-47.897686,-22.023249],[-47.897075,-22.022907]]]}},{"type":"Feature","properties":{"class":"college","name":"Colégio São Carlos"},"geometry":{"type":"Polygon","coordinates":[[[-47.892679,-22.014122],[-47.892701,-22.013321],[-47.89267,-22.013321],[-47.892324,-22.013321],[-47.892295,-22.013321],[-47.891915,-22.013321],[-47.891837,-22.013321],[-47.891815,-22.014117],[-47.892679,-22.014122]]]}},{"type":"Feature","properties":{"class":"college","name":"Universidade de São Paulo - Campus de São Carlos Área I"},"geometry":{"type":"Polygon","coordinates":[[[-47.899043,-22.006616],[-47.89906,-22.006527],[-47.899265,-22.006322],[-47.899579,-22.006047],[-47.899788,-22.005847],[-47.90017,-22.005482],[-47.900211,-22.005443],[-47.900369,-22.005224],[-47.900649,-22.004665],[-47.900664,-22.004517],[-47.900641,-22.004406],[-47.900567,-22.00432],[-47.900413,-22.004197],[-47.900288,-22.004022],[-47.900164,-22.003787],[-47.90014,-22.003635],[-47.900115,-22.003413],[-47.900109,-22.003017],[-47.900069,-22.00279],[-47.900023,-22.002684],[-47.899969,-22.002602],[-47.899894,-22.002512],[-47.899804,-22.002437],[-47.899724,-22.002389],[-47.899662,-22.002328],[-47.899588,-22.0023],[-47.899509,-22.002281],[-47.899385,-22.002271],[-47.899257,-22.002274],[-47.899119,-22.0023],[-47.898984,-22.002353],[-47.898949,-22.002374],[-47.898855,-22.002439],[-47.898778,-22.002527],[-47.89842,-22.002677],[-47.898363,-22.002643],[-47.898289,-22.002659],[-47.897437,-22.003142],[-47.896597,-22.003568],[-47.89619,-22.003699],[-47.896145,-22.003764],[-47.896145,-22.004665],[-47.896129,-22.005779],[-47.894997,-22.006301],[-47.893757,-22.007226],[-47.893406,-22.007502],[-47.893186,-22.007599],[-47.892644,-22.007729],[-47.892629,-22.007851],[-47.895939,-22.007893],[-47.895856,-22.011408],[-47.89679,-22.01141],[-47.896817,-22.010514],[-47.896841,-22.01031],[-47.896865,-22.010212],[-47.896893,-22.010159],[-47.896904,-22.010122],[-47.897276,-22.009607],[-47.898704,-22.007991],[-47.898872,-22.007754],[-47.89893,-22.007676],[-47.899057,-22.007569],[-47.899122,-22.007499],[-47.899142,-22.007438],[-47.899146,-22.007279],[-47.89912,-22.007144],[-47.899067,-22.006838],[-47.899043,-22.006616]]]}},{"type":"Feature","properties":{"class":"college"},"geometry":{"type":"Polygon","coordinates":[[[-47.89774,-22.003605],[-47.897705,-22.003605],[-47.897708,-22.003769],[-47.897743,-22.003769],[-47.89774,-22.003605]]]}},{"type":"Feature","properties":{"class":"college"},"geometry":{"type":"Polygon","coordinates":[[[-47.89767,-22.003586],[-47.897814,-22.003581],[-47.897811,-22.003491],[-47.897666,-22.003496],[-47.89767,-22.003586]]]}},{"type":"Feature","properties":{"class":"university","name":"Universidade Federal de São Carlos"},"geometry":{"type":"Polygon","coordinates":[[[-47.876578,-21.98418],[-47.876827,-21.98547],[-47.876778,-21.985889],[-47.876774,-21.986198],[-47.876806,-21.986212],[-47.876835,-21.98623],[-47.876861,-21.986252],[-47.876882,-21.986277],[-47.8769,-21.986305],[-47.876912,-21.986335],[-47.877191,-21.987563],[-47.876948,-21.987596],[-47.876962,-21.987838],[-47.876968,-21.987888],[-47.876982,-21.987937],[-47.877003,-21.987984],[-47.877032,-21.988027],[-47.877067,-21.988066],[-47.877108,-21.9881],[-47.877344,-21.988188],[-47.878392,-21.988543],[-47.87887,-21.988819],[-47.881163,-21.990172],[-47.88135,-21.99015],[-47.881531,-21.990047],[-47.881669,-21.990014],[-47.881836,-21.99007],[-47.881917,-21.990187],[-47.881901,-21.99038],[-47.881836,-21.990458],[-47.88189,-21.990622],[-47.882445,-21.990872],[-47.882577,-21.990948],[-47.882676,-21.99096],[-47.882756,-21.991002],[-47.882835,-21.991068],[-47.882933,-21.991188],[-47.88297,-21.991288],[-47.883181,-21.991398],[-47.883299,-21.991419],[-47.883477,-21.991427],[-47.883578,-21.991417],[-47.883946,-21.991374],[-47.88442,-21.991298],[-47.885514,-21.99097],[-47.886144,-21.990697],[-47.886457,-21.990564],[-47.886818,-21.989978],[-47.887032,-21.989463],[-47.887152,-21.989014],[-47.884933,-21.987943],[-47.884732,-21.98802],[-47.884392,-21.98717],[-47.884558,-21.98718],[-47.884843,-21.986305],[-47.884845,-21.986193],[-47.884749,-21.986059],[-47.884601,-21.985966],[-47.884659,-21.985702],[-47.885912,-21.981046],[-47.886765,-21.981215],[-47.886829,-21.980993],[-47.886799,-21.980975],[-47.886772,-21.980952],[-47.886749,-21.980925],[-47.886732,-21.980894],[-47.886721,-21.980862],[-47.886716,-21.980828],[-47.886717,-21.980794],[-47.886724,-21.980761],[-47.886738,-21.980733],[-47.886758,-21.980703],[-47.886775,-21.980677],[-47.886798,-21.980649],[-47.886891,-21.98059],[-47.887004,-21.980527],[-47.887091,-21.980446],[-47.887148,-21.98036],[-47.887164,-21.980263],[-47.887681,-21.979471],[-47.887799,-21.979236],[-47.887876,-21.978987],[-47.888055,-21.978125],[-47.886667,-21.978136],[-47.886503,-21.978134],[-47.886517,-21.97795],[-47.886557,-21.977803],[-47.886602,-21.977661],[-47.886621,-21.977457],[-47.886608,-21.977249],[-47.886584,-21.977114],[-47.886586,-21.976885],[-47.886568,-21.976709],[-47.886423,-21.976341],[-47.886326,-21.976234],[-47.886173,-21.976201],[-47.885994,-21.976259],[-47.885653,-21.976455],[-47.885269,-21.976729],[-47.884701,-21.977094],[-47.88396,-21.975383],[-47.883636,-21.97553],[-47.882605,-21.976018],[-47.881323,-21.976534],[-47.878682,-21.977751],[-47.876401,-21.978735],[-47.876364,-21.978751],[-47.876341,-21.97876],[-47.877248,-21.980922],[-47.877253,-21.980942],[-47.877247,-21.980962],[-47.877231,-21.980977],[-47.877209,-21.980984],[-47.876256,-21.981014],[-47.876214,-21.981009],[-47.876176,-21.980991],[-47.876161,-21.980978],[-47.876138,-21.980946],[-47.876131,-21.980927],[-47.876115,-21.980545],[-47.876103,-21.980521],[-47.876089,-21.980509],[-47.876071,-21.980503],[-47.876051,-21.980503],[-47.876033,-21.980509],[-47.874961,-21.98124],[-47.874955,-21.981238],[-47.87531,-21.982084],[-47.875446,-21.982408],[-47.875661,-21.982704],[-47.876474,-21.984201],[-47.876578,-21.98418]]]}},{"type":"Feature","properties":{"class":"university"},"geometry":{"type":"Polygon","coordinates":[[[-47.882301,-21.988752],[-47.882146,-21.988813],[-47.882635,-21.989751],[-47.882705,-21.989828],[-47.8831,-21.98971],[-47.883049,-21.989538],[-47.882904,-21.989477],[-47.882871,-21.989414],[-47.882741,-21.989462],[-47.882392,-21.988716],[-47.882301,-21.988752]]]}},{"type":"Feature","properties":{"class":"university","name":"Centro Universitário Central Paulista"},"geometry":{"type":"Polygon","coordinates":[[[-47.930337,-21.980371],[-47.930108,-21.980631],[-47.929968,-21.98079],[-47.92916,-21.981709],[-47.933135,-21.982655],[-47.933133,-21.982771],[-47.933688,-21.982774],[-47.934142,-21.982858],[-47.934397,-21.982928],[-47.935223,-21.982858],[-47.935327,-21.982182],[-47.93503,-21.981699],[-47.934995,-21.981547],[-47.934909,-21.981503],[-47.934812,-21.981381],[-47.934761,-21.981259],[-47.934764,-21.981144],[-47.934705,-21.980926],[-47.931593,-21.980172],[-47.931426,-21.980132],[-47.930953,-21.980017],[-47.930698,-21.979955],[-47.930539,-21.980141],[-47.930337,-21.980371]]]}},{"type":"Feature","properties":{"class":"college","name":"Universidade de São Paulo - Campus de São Carlos Área II"},"geometry":{"type":"Polygon","coordinates":[[[-47.926718,-21.99896],[-47.926959,-21.998995],[-47.928047,-21.999985],[-47.928266,-22.000316],[-47.927982,-22.000775],[-47.92791,-22.001139],[-47.927723,-22.001675],[-47.927338,-22.002233],[-47.927385,-22.002379],[-47.926587,-22.003346],[-47.926765,-22.003718],[-47.928578,-22.004338],[-47.931252,-22.007332],[-47.931958,-22.006825],[-47.933161,-22.006116],[-47.933186,-22.006376],[-47.934237,-22.00561],[-47.935678,-22.004501],[-47.935763,-22.004146],[-47.935777,-22.00366],[-47.935703,-22.003276],[-47.935211,-22.002382],[-47.93454,-22.001081],[-47.93436,-22.000334],[-47.934334,-21.999803],[-47.934323,-21.999391],[-47.934357,-21.999115],[-47.934575,-21.998297],[-47.934613,-21.998061],[-47.934597,-21.997679],[-47.934528,-21.997289],[-47.934338,-21.996651],[-47.934227,-21.996345],[-47.933652,-21.995389],[-47.933413,-21.99485],[-47.933378,-21.994656],[-47.933363,-21.994227],[-47.93339,-21.993813],[-47.93349,-21.993431],[-47.933682,-21.993005],[-47.934134,-21.992349],[-47.934523,-21.991849],[-47.93344,-21.991382],[-47.927561,-21.996623],[-47.927144,-21.997],[-47.925783,-21.998178],[-47.926718,-21.99896]]]}},{"type":"Feature","properties":{"class":"university","name":"Instituto Federal de São Paulo campus São Carlos"},"geometry":{"type":"Polygon","coordinates":[[[-47.877466,-21.969299],[-47.877261,-21.969477],[-47.878186,-21.970693],[-47.878065,-21.970825],[-47.878063,-21.970896],[-47.878073,-21.970967],[-47.878094,-21.971035],[-47.878179,-21.971123],[-47.878309,-21.971006],[-47.878467,-21.97118],[-47.879413,-21.970319],[-47.878205,-21.968656],[-47.877466,-21.969299]]]}}]}