{"type":"FeatureCollection","features":[{"type":"Feature","properties":{"name":"Parque Alagável da Chaminé","tipo":"parque-alagavel","horizonte":"curto","desc":"Reservatório de detenção de ~240.000 m³ já projetado pelo SAAE, redesenhado como parque alagável (precedentes: Curitiba, Enghaveparken/Copenhague): lago permanente, várzea gramada que recebe as cheias, chaminé histórica como marco e memorial das enchentes."},"geometry":{"type":"Polygon","coordinates":[[[-47.88069279735261,-22.023274763745853],[-47.88056343391738,-22.023279803879696],[-47.880479368833164,-22.023287476726704],[-47.88039655709253,-22.023303848244037],[-47.88031589630439,-22.023328740978364],[-47.879297337020574,-22.02370217978465],[-47.87721892013437,-22.024388027537633],[-47.877153054431346,-22.02441298389009],[-47.87702737224253,-22.024466957836207],[-47.87678710473144,-22.024542741137196],[-47.87678017962626,-22.02454495959182],[-47.87611617962626,-22.02476095959182],[-47.87607175516103,-22.024776854546467],[-47.87543167775691,-22.025027110373642],[-47.874796814520906,-22.02522818142786],[-47.87450623055313,-22.025302621148],[-47.874233752056966,-22.02536402475277],[-47.874205853051635,-22.025370833176797],[-47.874011853051634,-22.025421833176797],[-47.873935983915985,-22.02544581508875],[-47.873862830749395,-22.02547711799696],[-47.87379309805684,-22.025515440437307],[-47.87372745740227,-22.02556041334374],[-47.87366654094107,-22.025611603602588],[-47.873610935332074,-22.02566851822367],[-47.873561176087684,-22.025730609088075],[-47.873517742416624,-22.02579727822684],[-47.873481052608895,-22.02586788357971],[-47.873451460007395,-22.02594174517854],[-47.87342924960506,-22.026018151695755],[-47.8734146353002,-22.02609636729483],[-47.87340775783656,-22.02617563871679],[-47.873408683447884,-22.0262552025345],[-47.87341740322002,-22.02633429250491],[-47.8734338331768,-22.02641214694836],[-47.873457815088756,-22.02648801608401],[-47.87348911799696,-22.026561169250606],[-47.87352744043731,-22.02663090194316],[-47.873572413343744,-22.02669654259773],[-47.87362360360259,-22.026757459058924],[-47.87368051822367,-22.026813064667923],[-47.873742609088076,-22.026862823912314],[-47.873809278226844,-22.026906257583374],[-47.87387988357971,-22.026942947391106],[-47.87395374517854,-22.026972539992602],[-47.874030151695756,-22.02699475039494],[-47.87410836729483,-22.027009364699797],[-47.87418763871679,-22.027016242163434],[-47.874267202534504,-22.027015316552113],[-47.87434629250491,-22.027006596779977],[-47.874424146948364,-22.0269901668232],[-47.874604257741346,-22.026942818109582],[-47.87487424794303,-22.026881975247232],[-47.874897210439435,-22.02687644798045],[-47.875221210439435,-22.02679344798045],[-47.87526481139398,-22.026780969308774],[-47.87594681139398,-22.026564969308772],[-47.87599724483897,-22.02654714545353],[-47.87664026394283,-22.026295739488113],[-47.877278362795124,-22.02608816516267],[-47.87755389526856,-22.026001258862802],[-47.87762994556866,-22.02597301610991],[-47.87776055521884,-22.02591692607609],[-47.879818079865636,-22.025237972462367],[-47.87984310369561,-22.025229259021636],[-47.88075418920613,-22.024895223790818],[-47.88085756608262,-22.024891196120304],[-47.88095310881962,-22.02488178556362],[-47.88107910881962,-22.02486178556362],[-47.881141741950124,-22.024849297001953],[-47.881203197842005,-22.024831917515108],[-47.88129219784201,-22.024802917515107],[-47.88135838192036,-22.024778111846548],[-47.881422154231295,-22.0247476365159],[-47.88151415423129,-22.024698636515904],[-47.88159226254205,-22.024651200634835],[-47.88166453688349,-22.024595276663298],[-47.881755536883496,-22.0245162766633],[-47.881815516652026,-22.024458546861236],[-47.88189051665202,-22.024378546861236],[-47.88193035363208,-22.024332730539864],[-47.88196665061325,-22.02428406176711],[-47.88213065061325,-22.02404606176711],[-47.88217953049337,-22.023965470977807],[-47.88234953049337,-22.023644470977803],[-47.882364922581274,-22.023613860295743],[-47.88248967299669,-22.02335212903202],[-47.88266725522548,-22.023096080237032],[-47.882719286130474,-22.023010137216588],[-47.88286095350108,-22.022739603743805],[-47.883020027696446,-22.02251277572448],[-47.88307744192465,-22.022448184717753],[-47.88327796960784,-22.02234045441987],[-47.88376280225057,-22.02215979754259],[-47.884139337815355,-22.02206337783947],[-47.88468565382991,-22.021974014174354],[-47.88497837160332,-22.021934535790443],[-47.8850026243463,-22.021930890588578],[-47.8853886243463,-22.021866890588576],[-47.885487776315024,-22.021843977419696],[-47.885782776315025,-22.021755977419698],[-47.88584631797752,-22.021734116853924],[-47.88601469045352,-22.02166826821232],[-47.88611665000317,-22.02163853001034],[-47.88641463816503,-22.021577126389108],[-47.88649168820026,-22.0215572631085],[-47.886566420276544,-22.021529943250908],[-47.886638114683144,-22.021495429921487],[-47.88670608096372,-22.021454055502467],[-47.88676966456585,-22.02140621845212],[-47.88682825314468,-22.021352379467395],[-47.88688128246016,-22.021293057047146],[-47.886928241811006,-22.021228822498706],[-47.886968678953,-22.021160294435894],[-47.88700220445435,-22.02108813282141],[-47.887028495446145,-22.02101303261106],[-47.88704729873178,-22.02093571706091],[-47.88705843322533,-22.020856930761983],[-47.88706179169552,-22.020777432469405],[-47.887057341798474,-22.020697987795188],[-47.887045126389104,-22.020619361834974],[-47.887025263108505,-22.020542311799748],[-47.886997943250904,-22.02046757972346],[-47.88696342992149,-22.020395885316862],[-47.88692205550247,-22.02032791903628],[-47.88687421845212,-22.020264335434153],[-47.886820379467395,-22.02020574685533],[-47.886761057047146,-22.02015271753984],[-47.886696822498706,-22.020105758188993],[-47.886628294435894,-22.020065321047007],[-47.88655613282141,-22.02003179554566],[-47.88648103261106,-22.020005504553854],[-47.88640371706091,-22.01998670126822],[-47.88632493076199,-22.019975566774676],[-47.8862454324694,-22.019972208304477],[-47.88616598779519,-22.019976658201532],[-47.886087361834974,-22.019988873610895],[-47.885757361834976,-22.020056873610894],[-47.88569397297297,-22.020072621621622],[-47.88552597297297,-22.020121621621623],[-47.88545768202248,-22.020144883146077],[-47.88528699953415,-22.020211635208344],[-47.885073079290144,-22.020275448704858],[-47.88474947445733,-22.020329103392168],[-47.88445762839668,-22.020368464209557],[-47.88443511111176,-22.020371823600783],[-47.88384211111176,-22.020468823600783],[-47.883771864892175,-22.02048353272549],[-47.883318864892175,-22.020599532725488],[-47.88323689328563,-22.020625220585163],[-47.88265989328563,-22.020840220585164],[-47.88255927459667,-22.020885738853238],[-47.88218327459668,-22.02108773885324],[-47.88212212708177,-22.021124134041603],[-47.88206440612992,-22.021165750384927],[-47.88201055632758,-22.021212267339934],[-47.88196099244432,-22.02126332661716],[-47.881776992444316,-22.02147032661716],[-47.881719163179795,-22.021543452100133],[-47.8815031631798,-22.021851452100133],[-47.88144871386953,-22.021940862783413],[-47.881306061939526,-22.02221327640878],[-47.88111974477452,-22.022481919762967],[-47.881084622795065,-22.022537202522955],[-47.881054077418725,-22.022595139704254],[-47.880908450009386,-22.022900671719935],[-47.88076856333921,-22.023164810667737],[-47.88069279735261,-22.023274763745853]]]}},{"type":"Feature","properties":{"name":"Praça d'água do Mercado","tipo":"praca-dagua","horizonte":"curto","desc":"Praça/estacionamento rebaixado como bacia multiuso (precedente: Benthemplein/Roterdã) — quadras e arquibancadas que retêm água nas chuvas fortes."},"geometry":{"type":"Polygon","coordinates":[[[-47.8917945945946,-22.0206],[-47.89179654673243,-22.020639736678515],[-47.89180238434579,-22.020679090671088],[-47.89181205121525,-22.020717682977267],[-47.89182545424358,-22.020755141932042],[-47.891842464352294,-22.0207911067852],[-47.891862917724744,-22.02082523117555],[-47.891886617383776,-22.020857186466554],[-47.89191333508871,-22.020886664911295],[-47.89194281353345,-22.02091338261623],[-47.891974768824454,-22.02093708227526],[-47.8920088932148,-22.02095753564771],[-47.89204485806796,-22.020974545756424],[-47.89208231702274,-22.020987948784757],[-47.892120909328916,-22.02099761565422],[-47.89216026332149,-22.02100345326757],[-47.8922,-22.021005405405408],[-47.89223973667851,-22.02100345326757],[-47.89227909067109,-22.02099761565422],[-47.892317682977264,-22.020987948784757],[-47.89235514193204,-22.020974545756424],[-47.892391106785205,-22.02095753564771],[-47.89242523117555,-22.02093708227526],[-47.89245718646656,-22.02091338261623],[-47.892486664911296,-22.020886664911295],[-47.89251338261623,-22.020857186466554],[-47.89253708227526,-22.02082523117555],[-47.89255753564771,-22.0207911067852],[-47.892574545756425,-22.020755141932042],[-47.89258794878476,-22.020717682977267],[-47.89259761565422,-22.020679090671088],[-47.892603453267576,-22.020639736678515],[-47.892605405405405,-22.0206],[-47.892603453267576,-22.02056026332149],[-47.89259761565422,-22.020520909328916],[-47.89258794878476,-22.020482317022736],[-47.892574545756425,-22.02044485806796],[-47.89255753564771,-22.020408893214803],[-47.89253708227526,-22.020374768824453],[-47.89251338261623,-22.02034281353345],[-47.892486664911296,-22.02031333508871],[-47.89245718646656,-22.020286617383775],[-47.89242523117555,-22.020262917724743],[-47.892391106785205,-22.020242464352293],[-47.89235514193204,-22.02022545424358],[-47.892317682977264,-22.020212051215246],[-47.89227909067109,-22.020202384345783],[-47.89223973667851,-22.020196546732432],[-47.8922,-22.020194594594596],[-47.89216026332149,-22.020196546732432],[-47.892120909328916,-22.020202384345783],[-47.89208231702274,-22.020212051215246],[-47.89204485806796,-22.02022545424358],[-47.8920088932148,-22.020242464352293],[-47.891974768824454,-22.020262917724743],[-47.89194281353345,-22.020286617383775],[-47.89191333508871,-22.02031333508871],[-47.891886617383776,-22.02034281353345],[-47.891862917724744,-22.020374768824453],[-47.891842464352294,-22.020408893214803],[-47.89182545424358,-22.02044485806796],[-47.89181205121525,-22.020482317022736],[-47.89180238434579,-22.020520909328916],[-47.89179654673243,-22.02056026332149],[-47.8917945945946,-22.0206]]]}},{"type":"Feature","properties":{"name":"Praça d'água da Vila Prado","tipo":"praca-dagua","horizonte":"curto","desc":"Segunda bacia multiuso piloto junto à Rotatória do Cristo, aliviando o Simeão."},"geometry":{"type":"Polygon","coordinates":[[[-47.890994594594595,-22.0311],[-47.890996546732424,-22.03113973667851],[-47.89100238434578,-22.031179090671085],[-47.89101205121524,-22.031217682977264],[-47.891025454243575,-22.03125514193204],[-47.89104246435229,-22.031291106785197],[-47.89106291772474,-22.031325231175547],[-47.89108661738377,-22.03135718646655],[-47.891113335088704,-22.03138666491129],[-47.89114281353344,-22.031413382616226],[-47.89117476882445,-22.031437082275257],[-47.891208893214795,-22.031457535647707],[-47.89124485806796,-22.03147454575642],[-47.891282317022736,-22.031487948784754],[-47.89132090932891,-22.031497615654217],[-47.89136026332149,-22.031503453267568],[-47.8914,-22.031505405405404],[-47.89143973667851,-22.031503453267568],[-47.89147909067108,-22.031497615654217],[-47.89151768297726,-22.031487948784754],[-47.89155514193204,-22.03147454575642],[-47.8915911067852,-22.031457535647707],[-47.891625231175546,-22.031437082275257],[-47.89165718646655,-22.031413382616226],[-47.89168666491129,-22.03138666491129],[-47.891713382616224,-22.03135718646655],[-47.891737082275256,-22.031325231175547],[-47.891757535647706,-22.031291106785197],[-47.89177454575642,-22.03125514193204],[-47.89178794878475,-22.031217682977264],[-47.89179761565421,-22.031179090671085],[-47.89180345326757,-22.03113973667851],[-47.8918054054054,-22.0311],[-47.89180345326757,-22.031060263321486],[-47.89179761565421,-22.031020909328912],[-47.89178794878475,-22.030982317022733],[-47.89177454575642,-22.030944858067958],[-47.891757535647706,-22.0309088932148],[-47.891737082275256,-22.03087476882445],[-47.891713382616224,-22.030842813533447],[-47.89168666491129,-22.030813335088705],[-47.89165718646655,-22.03078661738377],[-47.891625231175546,-22.03076291772474],[-47.8915911067852,-22.03074246435229],[-47.89155514193204,-22.030725454243576],[-47.89151768297726,-22.030712051215243],[-47.89147909067108,-22.03070238434578],[-47.89143973667851,-22.03069654673243],[-47.8914,-22.030694594594593],[-47.89136026332149,-22.03069654673243],[-47.89132090932891,-22.03070238434578],[-47.891282317022736,-22.030712051215243],[-47.89124485806796,-22.030725454243576],[-47.891208893214795,-22.03074246435229],[-47.89117476882445,-22.03076291772474],[-47.89114281353344,-22.03078661738377],[-47.891113335088704,-22.030813335088705],[-47.89108661738377,-22.030842813533447],[-47.89106291772474,-22.03087476882445],[-47.89104246435229,-22.0309088932148],[-47.891025454243575,-22.030944858067958],[-47.89101205121524,-22.030982317022733],[-47.89100238434578,-22.031020909328912],[-47.890996546732424,-22.031060263321486],[-47.890994594594595,-22.0311]]]}},{"type":"Feature","properties":{"name":"Boulevard do Gregório","tipo":"boulevard","horizonte":"medio","desc":"Requalificação das marginais do canal no trecho central: calçadas largas, sombra, iluminação cênica e fachadas ativas voltadas para a água (precedentes: Madrid Río, San Antonio)."},"geometry":{"type":"LineString","coordinates":[[-47.886634,-22.020794],[-47.886818,-22.02077],[-47.886931,-22.020728],[-47.887076,-22.02065],[-47.88724,-22.020562],[-47.887341,-22.020532],[-47.887449,-22.020512],[-47.887545,-22.02051],[-47.887738,-22.020508],[-47.888469,-22.020522],[-47.888725,-22.020527],[-47.889583,-22.020447],[-47.889841,-22.02043],[-47.890501,-22.020424],[-47.890612,-22.020426],[-47.891816,-22.020424],[-47.893149,-22.020459],[-47.893512,-22.019879],[-47.89372,-22.019707],[-47.894189,-22.018912],[-47.894245,-22.018836],[-47.894276,-22.018794],[-47.895754,-22.017791],[-47.896586,-22.017268],[-47.896956,-22.017087]]}},{"type":"Feature","properties":{"name":"Mercadão gastronômico","tipo":"ancora","horizonte":"medio","desc":"Requalificação do Mercado Municipal como âncora gastronômica do circuito — todo case turístico de água tem âncora de comida."},"geometry":{"type":"Polygon","coordinates":[[[-47.89078468468469,-22.02],[-47.890786203014116,-22.020030906305507],[-47.89079074338005,-22.0200615149664],[-47.8907982620563,-22.02009153120454],[-47.890808686633896,-22.020120665947143],[-47.89082191671845,-22.02014863861071],[-47.89083782489703,-22.020175179803203],[-47.890856257965154,-22.020200033918428],[-47.89087703840233,-22.02022296159767],[-47.89089996608157,-22.020243742034843],[-47.890924820196794,-22.020262175102978],[-47.89095136138929,-22.02027808328155],[-47.89097933405286,-22.02029131336611],[-47.89100846879546,-22.020301737943697],[-47.8910384850336,-22.020309256619946],[-47.89106909369449,-22.02031379698589],[-47.8911,-22.020315315315315],[-47.89113090630551,-22.02031379698589],[-47.891161514966406,-22.020309256619946],[-47.89119153120454,-22.020301737943697],[-47.891220665947145,-22.02029131336611],[-47.89124863861071,-22.02027808328155],[-47.89127517980321,-22.020262175102978],[-47.891300033918434,-22.020243742034843],[-47.89132296159767,-22.02022296159767],[-47.89134374203485,-22.020200033918428],[-47.89136217510298,-22.020175179803203],[-47.89137808328155,-22.02014863861071],[-47.89139131336611,-22.020120665947143],[-47.8914017379437,-22.02009153120454],[-47.89140925661995,-22.0200615149664],[-47.89141379698589,-22.020030906305507],[-47.891415315315314,-22.02],[-47.89141379698589,-22.019969093694492],[-47.89140925661995,-22.0199384850336],[-47.8914017379437,-22.01990846879546],[-47.89139131336611,-22.019879334052856],[-47.89137808328155,-22.01985136138929],[-47.89136217510298,-22.019824820196796],[-47.89134374203485,-22.01979996608157],[-47.89132296159767,-22.019777038402328],[-47.891300033918434,-22.019756257965156],[-47.89127517980321,-22.01973782489702],[-47.89124863861071,-22.01972191671845],[-47.891220665947145,-22.01970868663389],[-47.89119153120454,-22.019698262056302],[-47.891161514966406,-22.019690743380053],[-47.89113090630551,-22.01968620301411],[-47.8911,-22.019684684684684],[-47.89106909369449,-22.01968620301411],[-47.8910384850336,-22.019690743380053],[-47.89100846879546,-22.019698262056302],[-47.89097933405286,-22.01970868663389],[-47.89095136138929,-22.01972191671845],[-47.890924820196794,-22.01973782489702],[-47.89089996608157,-22.019756257965156],[-47.89087703840233,-22.019777038402328],[-47.890856257965154,-22.01979996608157],[-47.89083782489703,-22.019824820196796],[-47.89082191671845,-22.01985136138929],[-47.890808686633896,-22.019879334052856],[-47.8907982620563,-22.01990846879546],[-47.89079074338005,-22.0199384850336],[-47.890786203014116,-22.019969093694492],[-47.89078468468469,-22.02]]]}},{"type":"Feature","properties":{"name":"Circuito das Águas do Centro","tipo":"circuito","horizonte":"medio","desc":"Roteiro turístico a pé conectando SESC → Teatro → Catedral → Mercadão → Estação Cultura → Parque da Chaminé, todo na baixada. Sinalização e identidade visual únicas."},"geometry":{"type":"LineString","coordinates":[[-47.906,-22.0169],[-47.8936,-22.0159],[-47.8908,-22.0184],[-47.8911,-22.02],[-47.8949,-22.0223],[-47.8911,-22.02],[-47.8865,-22.0209],[-47.88,-22.0218]]}},{"type":"Feature","properties":{"name":"Reservatório do Simeão ampliado","tipo":"reservatorio","horizonte":"curto","aproximado":true,"desc":"Ampliação do reservatório existente na Vila Prado (projeto SAAE, ~R$ 140 mi) com novas galerias sob a Av. Getúlio Vargas. Posição aproximada — região do Parque do Bicão."},"geometry":{"type":"Polygon","coordinates":[[[-47.90670450450451,-22.0311],[-47.90670689045075,-22.031148567051513],[-47.906714025311516,-22.031196666375774],[-47.90672584037419,-22.03124383474999],[-47.906742221853264,-22.031289617916936],[-47.906763011986136,-22.03133357495969],[-47.90678801055247,-22.03137528254789],[-47.90681697680239,-22.031414339014674],[-47.90684963177509,-22.03145036822491],[-47.906885660985324,-22.031483023197612],[-47.906924717452114,-22.031511989447537],[-47.906966425040316,-22.031536988013865],[-47.907010382083065,-22.031557778146738],[-47.90705616525001,-22.031574159625812],[-47.90710333362423,-22.031585974688486],[-47.90715143294849,-22.031593109549252],[-47.9072,-22.031595495495495],[-47.90724856705152,-22.031593109549252],[-47.90729666637578,-22.031585974688486],[-47.907343834749994,-22.031574159625812],[-47.90738961791694,-22.031557778146738],[-47.90743357495969,-22.031536988013865],[-47.90747528254789,-22.031511989447537],[-47.90751433901468,-22.031483023197612],[-47.90755036822492,-22.03145036822491],[-47.90758302319762,-22.031414339014674],[-47.90761198944754,-22.03137528254789],[-47.90763698801387,-22.03133357495969],[-47.90765777814674,-22.031289617916936],[-47.90767415962581,-22.03124383474999],[-47.90768597468849,-22.031196666375774],[-47.90769310954926,-22.031148567051513],[-47.907695495495496,-22.0311],[-47.90769310954926,-22.031051432948484],[-47.90768597468849,-22.031003333624223],[-47.90767415962581,-22.030956165250007],[-47.90765777814674,-22.03091038208306],[-47.90763698801387,-22.03086642504031],[-47.90761198944754,-22.030824717452106],[-47.90758302319762,-22.030785660985323],[-47.90755036822492,-22.030749631775087],[-47.90751433901468,-22.030716976802385],[-47.90747528254789,-22.03068801055246],[-47.90743357495969,-22.03066301198613],[-47.90738961791694,-22.03064222185326],[-47.907343834749994,-22.030625840374185],[-47.90729666637578,-22.03061402531151],[-47.90724856705152,-22.030606890450745],[-47.9072,-22.030604504504502],[-47.90715143294849,-22.030606890450745],[-47.90710333362423,-22.03061402531151],[-47.90705616525001,-22.030625840374185],[-47.907010382083065,-22.03064222185326],[-47.906966425040316,-22.03066301198613],[-47.906924717452114,-22.03068801055246],[-47.906885660985324,-22.030716976802385],[-47.90684963177509,-22.030749631775087],[-47.90681697680239,-22.030785660985323],[-47.90678801055247,-22.030824717452106],[-47.906763011986136,-22.03086642504031],[-47.906742221853264,-22.03091038208306],[-47.90672584037419,-22.030956165250007],[-47.906714025311516,-22.031003333624223],[-47.90670689045075,-22.031051432948484],[-47.90670450450451,-22.0311]]]}},{"type":"Feature","properties":{"name":"Parque Linear do Gregório (fase 2)","tipo":"parque-linear","horizonte":"longo","desc":"Extensão do tratamento até a confluência com o Monjolinho: renaturalização onde houver margem (precedente: Bishan/Singapura) e laboratório vivo de drenagem urbana com sinalização científica (USP/UFSCar)."},"geometry":{"type":"LineString","coordinates":[[-47.897333,-22.017015],[-47.901516,-22.016578],[-47.9024,-22.016498],[-47.903093,-22.016438],[-47.903783,-22.016365],[-47.905135,-22.016243],[-47.905371,-22.016236],[-47.905617,-22.01625],[-47.905796,-22.016286],[-47.905877,-22.016312],[-47.906029,-22.016369],[-47.906142,-22.016422],[-47.906286,-22.016506],[-47.906401,-22.016603],[-47.906575,-22.016756],[-47.906607,-22.016789],[-47.906836,-22.017038],[-47.907254,-22.01748],[-47.907475,-22.017708],[-47.9078,-22.018031],[-47.908052,-22.018304],[-47.908279,-22.018493],[-47.90846,-22.018615],[-47.908684,-22.018726],[-47.908843,-22.018791],[-47.908915,-22.018817],[-47.90905,-22.018846],[-47.909259,-22.018878],[-47.909449,-22.018886],[-47.909668,-22.01887],[-47.909906,-22.018832],[-47.910223,-22.018722],[-47.910483,-22.018619],[-47.910773,-22.018415],[-47.910853,-22.018339],[-47.911178,-22.018029],[-47.911301,-22.017918],[-47.911497,-22.01779],[-47.911698,-22.01767],[-47.911987,-22.017511],[-47.912049,-22.01748],[-47.912138,-22.017464],[-47.912255,-22.017464],[-47.912333,-22.017498],[-47.912664,-22.0177]]}}]}