{"type":"FeatureCollection","features":[{"type":"Feature","properties":{"name":"UFSCar","cat":"universidade"},"geometry":{"type":"Point","coordinates":[-47.881539,-21.983966]}},{"type":"Feature","properties":{"name":"USP São Carlos","cat":"universidade"},"geometry":{"type":"Point","coordinates":[-47.898495,-22.004046]}},{"type":"Feature","properties":{"name":"IFSP","cat":"universidade"},"geometry":{"type":"Point","coordinates":[-47.879448,-21.969156]}},{"type":"Feature","properties":{"name":"Rodoviária","cat":"transporte"},"geometry":{"type":"Point","coordinates":[-47.889559,-22.005361]}},{"type":"Feature","properties":{"name":"Estação Ferroviária","cat":"transporte"},"geometry":{"type":"Point","coordinates":[-47.89566,-22.02307]}},{"type":"Feature","properties":{"name":"Santa Casa","cat":"saude"},"geometry":{"type":"Point","coordinates":[-47.901117,-22.011408]}},{"type":"Feature","properties":{"name":"Hospital Universitário (UFSCar)","cat":"saude"},"geometry":{"type":"Point","coordinates":[-47.886767,-21.991479]}},{"type":"Feature","properties":{"name":"Hospital Escola Municipal","cat":"saude"},"geometry":{"type":"Point","coordinates":[-47.9,-22.0167]}},{"type":"Feature","properties":{"name":"Mercado Municipal","cat":"comercio"},"geometry":{"type":"Point","coordinates":[-47.891128,-22.019997]}},{"type":"Feature","properties":{"name":"Shopping Iguatemi","cat":"comercio"},"geometry":{"type":"Point","coordinates":[-47.915068,-22.017464]}},{"type":"Feature","properties":{"name":"Passeio São Carlos","cat":"comercio"},"geometry":{"type":"Point","coordinates":[-47.904216,-22.005134]}},{"type":"Feature","properties":{"name":"Catedral","cat":"cultura"},"geometry":{"type":"Point","coordinates":[-47.89082,-22.018359]}},{"type":"Feature","properties":{"name":"Teatro Municipal","cat":"cultura"},"geometry":{"type":"Point","coordinates":[-47.893567,-22.015872]}},{"type":"Feature","properties":{"name":"SESC","cat":"cultura"},"geometry":{"type":"Point","coordinates":[-47.906,-22.016889]}},{"type":"Feature","properties":{"name":"Estação Cultura","cat":"cultura"},"geometry":{"type":"Point","coordinates":[-47.894923,-22.022348]}},{"type":"Feature","properties":{"name":"Parque do Kartódromo","cat":"parque"},"geometry":{"type":"Point","coordinates":[-47.898831,-21.999089]}}]}