{"type":"FeatureCollection","features":[{"type":"Feature","properties":{"tipo":"canal","name":"Canal do Gregório aberto"},"geometry":{"type":"Polygon","coordinates":[[[-47.87442908957703,-22.0262250282764],[-47.874711844261604,-22.026161308910865],[-47.874713885372394,-22.026160817598264],[-47.87503788537239,-22.026077817598264],[-47.875041761012795,-22.026076708383002],[-47.87572376101279,-22.025860708383],[-47.875728243985684,-22.025859124040313],[-47.87639129012827,-22.025599887954492],[-47.87705298780378,-22.025384636903425],[-47.87733167957943,-22.025296734121138],[-47.877338439606106,-22.025294223654214],[-47.877498560463906,-22.025225460095655],[-47.87958658487695,-22.024536441996656],[-47.87958880921739,-22.024535667468587],[-47.88060915015165,-22.024161575448076],[-47.88082880587401,-22.024153017432916],[-47.880837298561744,-22.024152180938987],[-47.880963298561745,-22.024132180938988],[-47.880968865951125,-22.024131070844618],[-47.880974328697064,-22.024129526001342],[-47.88106332869707,-22.02410052600134],[-47.881069211726256,-22.024098321053025],[-47.88107488037612,-22.024095612134744],[-47.881166880376114,-22.024046612134747],[-47.88117382333707,-22.024042395611986],[-47.88118024772297,-22.024037424592294],[-47.88127124772298,-22.023958424592294],[-47.881276579257964,-22.023953293054333],[-47.88135157925796,-22.023873293054333],[-47.88135512032285,-22.023869220492433],[-47.88135834672118,-22.0238648943793],[-47.88152234672118,-22.0236268943793],[-47.881526691599404,-22.023619730753584],[-47.88169669159941,-22.02329873075358],[-47.881698059785,-22.023296009804064],[-47.88184854871081,-22.022980278136185],[-47.88206022268671,-22.022675073798847],[-47.882064847656046,-22.02266743441925],[-47.88222868475565,-22.02235456477724],[-47.882439624684146,-22.02205378006438],[-47.882612372615526,-22.021859438641574],[-47.88297277507623,-22.02166581817066],[-47.88354158242227,-22.021453870892675],[-47.883987785583585,-22.02133961136351],[-47.88457663589605,-22.02124329014882],[-47.8848796330314,-22.021202425403594],[-47.88488178883078,-22.02120210138565],[-47.88526778883078,-22.02113810138565],[-47.88527660233911,-22.021136064659526],[-47.88557160233911,-22.021048064659528],[-47.88557725048689,-22.021046121498127],[-47.885776261373636,-22.020968290507767],[-47.88593839111143,-22.020921002667578],[-47.886257322904825,-22.02085528338894],[-47.886631930898126,-22.020866042365245],[-47.88663763772587,-22.020865980209244],[-47.886643321742994,-22.0208654666963],[-47.88682732174299,-22.0208414666963],[-47.88683532629278,-22.02083995843874],[-47.88684310953452,-22.020837556604775],[-47.886956109534516,-22.020795556604774],[-47.886965143250315,-22.02079147142688],[-47.88711011010695,-22.020713489255726],[-47.88726758449568,-22.02062899080324],[-47.88735786948286,-22.02060217348031],[-47.8874563607178,-22.02058393436273],[-47.887546124029264,-22.02058206429374],[-47.88773768331135,-22.02058007922346],[-47.88846760626835,-22.020594058596096],[-47.88872359261075,-22.02059905832935],[-47.888731690984905,-22.02059876081308],[-47.88958871587731,-22.020518851732202],[-47.889843699085574,-22.020502050513052],[-47.890500678335115,-22.020496077974418],[-47.89061070161485,-22.020498060375857],[-47.890612119720885,-22.020498071972636],[-47.89181511383127,-22.020496073643546],[-47.89314710828699,-22.02053104724141],[-47.89315390413237,-22.020530905028046],[-47.893160656355775,-22.02053012322365],[-47.89316730489658,-22.02052870878233],[-47.893173790616395,-22.020526674285453],[-47.89318005582513,-22.020524037829748],[-47.8931860447941,-22.020520822866345],[-47.893191704251784,-22.020517057992144],[-47.89319698385765,-22.020512776695494],[-47.89320183664989,-22.02050801705827],[-47.89320621946321,-22.020502821417168],[-47.893210093312746,-22.020497235987115],[-47.89356691037052,-22.01992711506836],[-47.89376592896287,-22.019762542001608],[-47.89377056675317,-22.019758355496755],[-47.89377482453306,-22.019753783054064],[-47.893778670305224,-22.019748859035563],[-47.89378207516858,-22.019743620445364],[-47.89424920518383,-22.018951790248927],[-47.89430300469272,-22.01887877662972],[-47.89432666845187,-22.018846716052817],[-47.89579342547929,-22.017851345756124],[-47.896621112300416,-22.017331057045254],[-47.89698767047462,-22.017151740749224],[-47.89699386367573,-22.017148324755468],[-47.896999692228945,-22.01714431817079],[-47.89700510000211,-22.017139759580793],[-47.89701003491542,-22.017134692887197],[-47.89701444944295,-22.01712916688502],[-47.89701830107039,-22.01712323479269],[-47.897021552704466,-22.017116953739503],[-47.89702417303017,-22.017110384215428],[-47.897026136812315,-22.017103589488574],[-47.897027425138624,-22.017096634995877],[-47.897028025601806,-22.017089587712903],[-47.897027932419064,-22.01708251550884],[-47.89702714648781,-22.017075486492878],[-47.89702567537697,-22.017068568358283],[-47.89702353325418,-22.017061827730473],[-47.89702074074923,-22.01705532952538],[-47.89701732475547,-22.01704913632427],[-47.89701331817079,-22.017043307771054],[-47.8970087595808,-22.01703789999789],[-47.897003692887196,-22.017032965084585],[-47.89699816688503,-22.017028550557058],[-47.8969922347927,-22.017024698929614],[-47.89698595373951,-22.017021447295537],[-47.89697938421543,-22.01701882696984],[-47.89697258948858,-22.017016863187685],[-47.89696563499588,-22.01701557486138],[-47.89695858771291,-22.0170149743982],[-47.896951515508846,-22.01701506758094],[-47.89694448649288,-22.0170158535122],[-47.89693756835828,-22.017017324623026],[-47.89693082773048,-22.017019466745825],[-47.89692432952538,-22.017022259250776],[-47.89655432952538,-22.017203259250778],[-47.89654764379208,-22.017206982093718],[-47.89571564379208,-22.017729982093716],[-47.895713529455904,-22.017731363445492],[-47.894235529455905,-22.018734363445493],[-47.894229067968475,-22.018739302943498],[-47.8942232041513,-22.01874493899784],[-47.89421801267895,-22.018751199834462],[-47.89418701267895,-22.018793199834462],[-47.894130977957666,-22.018869246916175],[-47.89412692483142,-22.018875379554636],[-47.89366434047319,-22.01965950442627],[-47.89346607103713,-22.019823457998392],[-47.893460408183806,-22.019828674379543],[-47.89345533409862,-22.019834465078947],[-47.89345090668726,-22.019840764012883],[-47.89310974404789,-22.02038587236228],[-47.89181789171301,-22.02035195275859],[-47.89181588027911,-22.020351928027363],[-47.89061258938917,-22.02035392684944],[-47.89050229838515,-22.020351939624142],[-47.89050034482642,-22.020351930905928],[-47.88984034482642,-22.02035793090593],[-47.88983626134076,-22.02035808387746],[-47.889578261340766,-22.02037508387746],[-47.8895763090151,-22.020375239186922],[-47.8887223498257,-22.020454862421364],[-47.88847040738925,-22.020449941670652],[-47.887739380060204,-22.02043594114207],[-47.887737253179246,-22.020435931797362],[-47.88754425317925,-22.020437931797364],[-47.88754349882424,-22.02043794356348],[-47.88744749882424,-22.020439943563478],[-47.887441663499416,-22.02044030230595],[-47.887435876449715,-22.02044113282847],[-47.88732787644972,-22.02046113282847],[-47.887320478589324,-22.02046291125072],[-47.88721947858932,-22.020492911250724],[-47.887212558532376,-22.020495356550004],[-47.8872059230483,-22.020498492953653],[-47.8870419230483,-22.02058649295365],[-47.88704185674968,-22.02058652857312],[-47.886901232781476,-22.020662174569807],[-47.886800562341946,-22.020699591901312],[-47.88663035083297,-22.020721793402487],[-47.886253069101876,-22.020710957634755],[-47.886244719562,-22.02071120209146],[-47.88623645438533,-22.020712410987638],[-47.885906454385335,-22.020780410987637],[-47.885900819819824,-22.02078181081081],[-47.88573281981982,-22.02083081081081],[-47.88572674951311,-22.020832878501874],[-47.885527533291906,-22.020910789796304],[-47.88523974038135,-22.020996639884874],[-47.8848592866184,-22.021059720301533],[-47.884556366968596,-22.021100574596407],[-47.88455436543216,-22.021100873208958],[-47.88396136543216,-22.02119787320896],[-47.883955121323744,-22.02119918068671],[-47.883502121323744,-22.02131518068671],[-47.88349483495872,-22.021317464052014],[-47.88291783495872,-22.021532464052015],[-47.88290889107526,-22.02153651012029],[-47.882532891075265,-22.02173851012029],[-47.88252745574061,-22.021741745248143],[-47.88252232498933,-22.02174544447866],[-47.88251753834023,-22.021749579319103],[-47.88251313266172,-22.021754117921525],[-47.88232913266172,-22.021961117921524],[-47.88232399228264,-22.021967617964457],[-47.88210799228265,-22.022275617964457],[-47.88210315234396,-22.02228356558075],[-47.881939227727955,-22.02259660234746],[-47.88172677731329,-22.02290292620115],[-47.88172365535956,-22.022907840224264],[-47.881720940215,-22.022912990195934],[-47.88156859555638,-22.02323261526402],[-47.88140127229684,-22.023548560948207],[-47.881242721901536,-22.023778652375537],[-47.8811739546179,-22.023852004144754],[-47.881091915718024,-22.023923224728158],[-47.88101268067527,-22.02396542600093],[-47.88093508156435,-22.02399071110449],[-47.88081892297709,-22.02400914897548],[-47.88059219412599,-22.024017982567084],[-47.88058472167406,-22.02401866459793],[-47.88057736063045,-22.024020119843915],[-47.88057019078261,-22.024022332531413],[-47.87954029662415,-22.024399927091935],[-47.87745041512306,-22.025089558003344],[-47.8774445603939,-22.025091776345786],[-47.87728487753266,-22.025160351807664],[-47.877009320420576,-22.02524726587886],[-47.87700870485567,-22.02524746307483],[-47.87634470485567,-22.02546346307483],[-47.876340756014315,-22.025464875959685],[-47.87567797135614,-22.025724009811],[-47.875000161290785,-22.025938682793576],[-47.87467913160468,-22.026020921879834],[-47.874396155738395,-22.026084691089135],[-47.87439367582681,-22.026085296282382],[-47.87419967582681,-22.02613629628238],[-47.87419293190364,-22.026138428007886],[-47.87418642939995,-22.026141210488618],[-47.874180230938386,-22.02614461692776],[-47.87417439621353,-22.026148614519443],[-47.874168981416986,-22.026153164764672],[-47.874164038696186,-22.026158223842103],[-47.87415961565224,-22.02616374303005],[-47.87415575488148,-22.02616966917572],[-47.874152493565234,-22.026175945207083],[-47.87414986311177,-22.026182510682535],[-47.874147888853784,-22.026189302372956],[-47.87414658980446,-22.02619625487065],[-47.87414597847436,-22.02620330121927],[-47.874146060750924,-22.02621037355862],[-47.87414683584178,-22.02621740377821],[-47.87414829628238,-22.026224324173185],[-47.87415042800789,-22.026231068096354],[-47.874153210488615,-22.026237570600053],[-47.87415661692776,-22.02624376906161],[-47.87416061451944,-22.026249603786464],[-47.874165164764676,-22.026255018583015],[-47.8741702238421,-22.026259961303815],[-47.87417574303005,-22.02626438434776],[-47.87418166917572,-22.02626824511852],[-47.87418794520708,-22.026271506434764],[-47.874194510682536,-22.02627413688823],[-47.87420130237295,-22.026276111146217],[-47.87420825487065,-22.026277410195537],[-47.874215301219266,-22.026278021525638],[-47.874222373558624,-22.026277939249074],[-47.874229403778216,-22.02627716415822],[-47.87423632417319,-22.026275703717616],[-47.87442908957703,-22.0262250282764]]]}},{"type":"Feature","properties":{"tipo":"calcadao","name":"Calçadão fluvial"},"geometry":{"type":"LineString","coordinates":[[-47.87425464834637,-22.026345407435233],[-47.874446179153914,-22.02629505655284],[-47.87472973679052,-22.026231156240367],[-47.87505967741852,-22.026146634412825],[-47.875750057287625,-22.02592798037803],[-47.876415580256484,-22.025667775909003],[-47.877074975608274,-22.02545327380662],[-47.877360244934685,-22.025363296384665],[-47.87752412092781,-22.0252929201913],[-47.8796114067519,-22.024604145816063],[-47.880623300303306,-22.024233150896148],[-47.88084015404581,-22.024224702049036],[-47.88098583687131,-22.024201577791022],[-47.88109763864948,-22.024165147998133],[-47.881215168563955,-22.024102550543684],[-47.88132409076414,-22.024007991710565],[-47.88141155619691,-22.023914695248937],[-47.88158645540638,-22.023660878103488],[-47.8817618088872,-22.023329769472053],[-47.88191109742163,-22.02301655627236],[-47.88212454454408,-22.022708795305117],[-47.882290369511296,-22.02239212955446],[-47.88249624936824,-22.022098560128814],[-47.88265774523105,-22.021916877283157],[-47.88300255015251,-22.021731636341304],[-47.88356316484453,-22.021522741785354],[-47.88400257116718,-22.021410222727017],[-47.884587271791986,-22.021314580297663],[-47.88489142676316,-22.021273559396946],[-47.8852885192373,-22.021207720230247],[-47.88559793341614,-22.02111542040741],[-47.88579952274731,-22.02103658101552],[-47.88595578222277,-22.020991005335176],[-47.88626364580968,-22.020927566777875],[-47.886641298334105,-22.020938413195022],[-47.886852875316094,-22.02091081619737],[-47.88699053443707,-22.02085965086037],[-47.88714422021938,-22.020776978508508],[-47.88729516899135,-22.020695981606476],[-47.88737473896571,-22.020672346960623],[-47.88746372143562,-22.020655868725456],[-47.88754724805818,-22.020654128587488],[-47.88773736662258,-22.02065215844692],[-47.88846621255615,-22.020666117192572],[-47.888730300348634,-22.02067127515727],[-47.88959443175449,-22.020590703464418],[-47.88984639817115,-22.02057410102611],[-47.89050035667024,-22.02056815594884],[-47.89061082122166,-22.02057014630112],[-47.89181422766279,-22.020568147287097],[-47.89322751190422,-22.020605255275434],[-47.89362182074103,-22.019975230136723],[-47.893831319053625,-22.019801991147467],[-47.89430941036767,-22.018991580497854],[-47.89436100937973,-22.018921553267198],[-47.894377336903744,-22.018899432105624],[-47.895832850958584,-22.017911691512253],[-47.896656224600825,-22.01739411409051],[-47.89701934094924,-22.017216481498448]]}},{"type":"Feature","properties":{"tipo":"calcadao","name":"Calçadão fluvial"},"geometry":{"type":"LineString","coordinates":[[-47.874181351653625,-22.026066592564764],[-47.874377820846085,-22.02601494344716],[-47.87466226320948,-22.025950843759635],[-47.87498032258148,-22.025869365587177],[-47.87565394271237,-22.02565601962197],[-47.87631841974352,-22.025396224090994],[-47.87698702439173,-22.02517872619338],[-47.87725975506532,-22.025092703615332],[-47.877421879072195,-22.0250230798087],[-47.879516593248105,-22.024331854183934],[-47.88056669969669,-22.023946849103854],[-47.880811845954184,-22.023937297950962],[-47.88091816312869,-22.023920422208977],[-47.88098436135053,-22.023898852001864],[-47.88105083143604,-22.023863449456318],[-47.88112390923587,-22.023800008289438],[-47.88118644380309,-22.023733304751065],[-47.881339544593615,-22.023511121896515],[-47.8815041911128,-22.023200230527944],[-47.88166090257837,-22.022871443727638],[-47.88187745545593,-22.022559204694883],[-47.88204363048871,-22.02224187044554],[-47.88226975063176,-22.021919439871187],[-47.88247625476895,-22.021687122716845],[-47.88288344984748,-22.021468363658695],[-47.88347683515546,-22.021247258214643],[-47.883943428832815,-22.021127777272984],[-47.88454472820801,-22.021029419702337],[-47.88484857323684,-22.020988440603055],[-47.8852234807627,-22.02092627976975],[-47.885504066583856,-22.020842579592593],[-47.88570647725269,-22.020763418984483],[-47.885886217777234,-22.020710994664825],[-47.886238354190326,-22.02063843322213],[-47.8866267016659,-22.020649586804975],[-47.8867831246839,-22.020629183802626],[-47.886871465562926,-22.020596349139627],[-47.88700777978062,-22.020523021491492],[-47.887184831008646,-22.020428018393527],[-47.88730726103429,-22.020391653039376],[-47.88743427856437,-22.020368131274545],[-47.88754275194182,-22.020365871412515],[-47.88773863337742,-22.020363841553078],[-47.88847181477849,-22.020377883341308],[-47.88871969965137,-22.020382724842733],[-47.889571568245515,-22.020303296535584],[-47.88983560182884,-22.020285898973892],[-47.89050164332976,-22.020279844051156],[-47.89061317877834,-22.02028185369888],[-47.891817772337205,-22.0202798527129],[-47.89307048809578,-22.020312744724563],[-47.89340217925897,-22.019782769863276],[-47.89360868094638,-22.019612008852533],[-47.894068589632326,-22.018832419502147],[-47.89412902535789,-22.018750399668924],[-47.89417466309625,-22.018688567894376],[-47.89567514904141,-22.017670308487745],[-47.89651577539917,-22.017141885909492],[-47.89689265905076,-22.016957518501552]]}},{"type":"Feature","properties":{"tipo":"arvore"},"geometry":{"type":"Point","coordinates":[-47.8744431711901,-22.026370326263002]}},{"type":"Feature","properties":{"tipo":"arvore"},"geometry":{"type":"Point","coordinates":[-47.874796955718026,-22.02628833592173]}},{"type":"Feature","properties":{"tipo":"arvore"},"geometry":{"type":"Point","coordinates":[-47.87515652058494,-22.026191563110803]}},{"type":"Feature","properties":{"tipo":"arvore"},"geometry":{"type":"Point","coordinates":[-47.87550006249998,-22.026082758046805]}},{"type":"Feature","properties":{"tipo":"arvore"},"geometry":{"type":"Point","coordinates":[-47.87585529344336,-22.025964220261635]}},{"type":"Feature","properties":{"tipo":"arvore"},"geometry":{"type":"Point","coordinates":[-47.87619091364494,-22.025833000333197]}},{"type":"Feature","properties":{"tipo":"arvore"},"geometry":{"type":"Point","coordinates":[-47.87651638811049,-22.025710772555122]}},{"type":"Feature","properties":{"tipo":"arvore"},"geometry":{"type":"Point","coordinates":[-47.876859072736366,-22.02559929683346]}},{"type":"Feature","properties":{"tipo":"arvore"},"geometry":{"type":"Point","coordinates":[-47.87720020953013,-22.0254893456262]}},{"type":"Feature","properties":{"tipo":"arvore"},"geometry":{"type":"Point","coordinates":[-47.87754056930491,-22.025363419458788]}},{"type":"Feature","properties":{"tipo":"arvore"},"geometry":{"type":"Point","coordinates":[-47.87788262829387,-22.025250512586098]}},{"type":"Feature","properties":{"tipo":"arvore"},"geometry":{"type":"Point","coordinates":[-47.87822483827714,-22.02513758820137]}},{"type":"Feature","properties":{"tipo":"arvore"},"geometry":{"type":"Point","coordinates":[-47.878567048260415,-22.025024663816648]}},{"type":"Feature","properties":{"tipo":"arvore"},"geometry":{"type":"Point","coordinates":[-47.878909258243695,-22.02491173943192]}},{"type":"Feature","properties":{"tipo":"arvore"},"geometry":{"type":"Point","coordinates":[-47.87925146822698,-22.02479881504719]}},{"type":"Feature","properties":{"tipo":"arvore"},"geometry":{"type":"Point","coordinates":[-47.87959441495226,-22.02468564608073]}},{"type":"Feature","properties":{"tipo":"arvore"},"geometry":{"type":"Point","coordinates":[-47.87993911946868,-22.0245607584614]}},{"type":"Feature","properties":{"tipo":"arvore"},"geometry":{"type":"Point","coordinates":[-47.88027745681164,-22.02443671237446]}},{"type":"Feature","properties":{"tipo":"arvore"},"geometry":{"type":"Point","coordinates":[-47.88061579415458,-22.02431266628752]}},{"type":"Feature","properties":{"tipo":"arvore"},"geometry":{"type":"Point","coordinates":[-47.88093106519406,-22.024283246069533]}},{"type":"Feature","properties":{"tipo":"arvore"},"geometry":{"type":"Point","coordinates":[-47.88136691407917,-22.02406551671239]}},{"type":"Feature","properties":{"tipo":"arvore"},"geometry":{"type":"Point","coordinates":[-47.88161162805661,-22.023751366561356]}},{"type":"Feature","properties":{"tipo":"arvore"},"geometry":{"type":"Point","coordinates":[-47.88179846869111,-22.023414542615964]}},{"type":"Feature","properties":{"tipo":"arvore"},"geometry":{"type":"Point","coordinates":[-47.88195968782911,-22.02308211947634]}},{"type":"Feature","properties":{"tipo":"arvore"},"geometry":{"type":"Point","coordinates":[-47.88214057061807,-22.02281215259207]}},{"type":"Feature","properties":{"tipo":"arvore"},"geometry":{"type":"Point","coordinates":[-47.8823287034247,-22.02247428600033]}},{"type":"Feature","properties":{"tipo":"arvore"},"geometry":{"type":"Point","coordinates":[-47.882514000699445,-22.022198770714986]}},{"type":"Feature","properties":{"tipo":"arvore"},"geometry":{"type":"Point","coordinates":[-47.88267218953943,-22.021990931664217]}},{"type":"Feature","properties":{"tipo":"arvore"},"geometry":{"type":"Point","coordinates":[-47.882989638937985,-22.02182038704052]}},{"type":"Feature","properties":{"tipo":"arvore"},"geometry":{"type":"Point","coordinates":[-47.88329693816606,-22.02169885523723]}},{"type":"Feature","properties":{"tipo":"arvore"},"geometry":{"type":"Point","coordinates":[-47.88361408153764,-22.021584101032516]}},{"type":"Feature","properties":{"tipo":"arvore"},"geometry":{"type":"Point","coordinates":[-47.88396317810408,-22.021494707651264]}},{"type":"Feature","properties":{"tipo":"arvore"},"geometry":{"type":"Point","coordinates":[-47.88429889138343,-22.021434782051116]}},{"type":"Feature","properties":{"tipo":"arvore"},"geometry":{"type":"Point","coordinates":[-47.884648745849766,-22.021379013983886]}},{"type":"Feature","properties":{"tipo":"arvore"},"geometry":{"type":"Point","coordinates":[-47.88501185498442,-22.021326648033916]}},{"type":"Feature","properties":{"tipo":"arvore"},"geometry":{"type":"Point","coordinates":[-47.88539162552007,-22.02125217354387]}},{"type":"Feature","properties":{"tipo":"arvore"},"geometry":{"type":"Point","coordinates":[-47.885750400482614,-22.0211331799759]}},{"type":"Feature","properties":{"tipo":"arvore"},"geometry":{"type":"Point","coordinates":[-47.886060629369204,-22.021042986759177]}},{"type":"Feature","properties":{"tipo":"arvore"},"geometry":{"type":"Point","coordinates":[-47.88636617908014,-22.021002613388802]}},{"type":"Feature","properties":{"tipo":"arvore"},"geometry":{"type":"Point","coordinates":[-47.88675977557224,-22.020995642218047]}},{"type":"Feature","properties":{"tipo":"arvore"},"geometry":{"type":"Point","coordinates":[-47.88716792581831,-22.02084606459891]}},{"type":"Feature","properties":{"tipo":"arvore"},"geometry":{"type":"Point","coordinates":[-47.88743653615756,-22.02073420049483]}},{"type":"Feature","properties":{"tipo":"arvore"},"geometry":{"type":"Point","coordinates":[-47.88775246977787,-22.020724532988872]}},{"type":"Feature","properties":{"tipo":"arvore"},"geometry":{"type":"Point","coordinates":[-47.888112764067536,-22.020731433289903]}},{"type":"Feature","properties":{"tipo":"arvore"},"geometry":{"type":"Point","coordinates":[-47.88847297630995,-22.020738335114558]}},{"type":"Feature","properties":{"tipo":"arvore"},"geometry":{"type":"Point","coordinates":[-47.88885709862703,-22.020731837155108]}},{"type":"Feature","properties":{"tipo":"arvore"},"geometry":{"type":"Point","coordinates":[-47.88921590269242,-22.020698382230595]}},{"type":"Feature","properties":{"tipo":"arvore"},"geometry":{"type":"Point","coordinates":[-47.889572555628526,-22.020665117046786]}},{"type":"Feature","properties":{"tipo":"arvore"},"geometry":{"type":"Point","coordinates":[-47.8899162741471,-22.020645540840157]}},{"type":"Feature","properties":{"tipo":"arvore"},"geometry":{"type":"Point","coordinates":[-47.89027661961745,-22.020642264972242]}},{"type":"Feature","properties":{"tipo":"arvore"},"geometry":{"type":"Point","coordinates":[-47.89063534621852,-22.020642177733432]}},{"type":"Feature","properties":{"tipo":"arvore"},"geometry":{"type":"Point","coordinates":[-47.89099570608168,-22.020641579129006]}},{"type":"Feature","properties":{"tipo":"arvore"},"geometry":{"type":"Point","coordinates":[-47.891356065944876,-22.020640980524583]}},{"type":"Feature","properties":{"tipo":"arvore"},"geometry":{"type":"Point","coordinates":[-47.89171642580806,-22.02064038192016]}},{"type":"Feature","properties":{"tipo":"arvore"},"geometry":{"type":"Point","coordinates":[-47.89207066200516,-22.02064697728315]}},{"type":"Feature","properties":{"tipo":"arvore"},"geometry":{"type":"Point","coordinates":[-47.892430898212204,-22.020656435848228]}},{"type":"Feature","properties":{"tipo":"arvore"},"geometry":{"type":"Point","coordinates":[-47.89279113441925,-22.020665894413302]}},{"type":"Feature","properties":{"tipo":"arvore"},"geometry":{"type":"Point","coordinates":[-47.89333654988354,-22.020566885459196]}},{"type":"Feature","properties":{"tipo":"arvore"},"geometry":{"type":"Point","coordinates":[-47.8935277298191,-22.0202614188955]}},{"type":"Feature","properties":{"tipo":"arvore"},"geometry":{"type":"Point","coordinates":[-47.893684111811325,-22.020017241934113]}},{"type":"Feature","properties":{"tipo":"arvore"},"geometry":{"type":"Point","coordinates":[-47.893974818739466,-22.019700589223483]}},{"type":"Feature","properties":{"tipo":"arvore"},"geometry":{"type":"Point","coordinates":[-47.894157920966286,-22.01939021338058]}},{"type":"Feature","properties":{"tipo":"arvore"},"geometry":{"type":"Point","coordinates":[-47.8943410231931,-22.01907983753768]}},{"type":"Feature","properties":{"tipo":"arvore"},"geometry":{"type":"Point","coordinates":[-47.89451858649236,-22.01889067800949]}},{"type":"Feature","properties":{"tipo":"arvore"},"geometry":{"type":"Point","coordinates":[-47.89481676926487,-22.01868832528903]}},{"type":"Feature","properties":{"tipo":"arvore"},"geometry":{"type":"Point","coordinates":[-47.89511495203744,-22.018485972568545]}},{"type":"Feature","properties":{"tipo":"arvore"},"geometry":{"type":"Point","coordinates":[-47.89541313480994,-22.01828361984809]}},{"type":"Feature","properties":{"tipo":"arvore"},"geometry":{"type":"Point","coordinates":[-47.89571131758248,-22.01808126712762]}},{"type":"Feature","properties":{"tipo":"arvore"},"geometry":{"type":"Point","coordinates":[-47.89600626322168,-22.017887812403075]}},{"type":"Feature","properties":{"tipo":"arvore"},"geometry":{"type":"Point","coordinates":[-47.896311352753095,-22.0176960313635]}},{"type":"Feature","properties":{"tipo":"arvore"},"geometry":{"type":"Point","coordinates":[-47.896616442284525,-22.01750425032391]}},{"type":"Feature","properties":{"tipo":"arvore"},"geometry":{"type":"Point","coordinates":[-47.896914925582955,-22.017347793969847]}},{"type":"Feature","properties":{"tipo":"arvore"},"geometry":{"type":"Point","coordinates":[-47.87434134739798,-22.025950052871057]}},{"type":"Feature","properties":{"tipo":"arvore"},"geometry":{"type":"Point","coordinates":[-47.87468964348368,-22.025869430332154]}},{"type":"Feature","properties":{"tipo":"arvore"},"geometry":{"type":"Point","coordinates":[-47.875025954508175,-22.025779312812784]}},{"type":"Feature","properties":{"tipo":"arvore"},"geometry":{"type":"Point","coordinates":[-47.87536949642316,-22.0256705077488]}},{"type":"Feature","properties":{"tipo":"arvore"},"geometry":{"type":"Point","coordinates":[-47.87569782952925,-22.025561476019746]}},{"type":"Feature","properties":{"tipo":"arvore"},"geometry":{"type":"Point","coordinates":[-47.876033449730805,-22.025430256091322]}},{"type":"Feature","properties":{"tipo":"arvore"},"geometry":{"type":"Point","coordinates":[-47.8763826172445,-22.025299551004096]}},{"type":"Feature","properties":{"tipo":"arvore"},"geometry":{"type":"Point","coordinates":[-47.87672530187035,-22.025188075282433]}},{"type":"Feature","properties":{"tipo":"arvore"},"geometry":{"type":"Point","coordinates":[-47.87707013205355,-22.02507694089938]}},{"type":"Feature","properties":{"tipo":"arvore"},"geometry":{"type":"Point","coordinates":[-47.877404779856235,-22.024952860042564]}},{"type":"Feature","properties":{"tipo":"arvore"},"geometry":{"type":"Point","coordinates":[-47.8777471190322,-22.024839860606164]}},{"type":"Feature","properties":{"tipo":"arvore"},"geometry":{"type":"Point","coordinates":[-47.878089329015474,-22.024726936221438]}},{"type":"Feature","properties":{"tipo":"arvore"},"geometry":{"type":"Point","coordinates":[-47.87843153899875,-22.024614011836714]}},{"type":"Feature","properties":{"tipo":"arvore"},"geometry":{"type":"Point","coordinates":[-47.87877374898203,-22.024501087451988]}},{"type":"Feature","properties":{"tipo":"arvore"},"geometry":{"type":"Point","coordinates":[-47.879115958965286,-22.02438816306727]}},{"type":"Feature","properties":{"tipo":"arvore"},"geometry":{"type":"Point","coordinates":[-47.87945743220656,-22.02427548326428]}},{"type":"Feature","properties":{"tipo":"arvore"},"geometry":{"type":"Point","coordinates":[-47.87979026416435,-22.024154753649864]}},{"type":"Feature","properties":{"tipo":"arvore"},"geometry":{"type":"Point","coordinates":[-47.880128601507295,-22.02403070756293]}},{"type":"Feature","properties":{"tipo":"arvore"},"geometry":{"type":"Point","coordinates":[-47.88046693885025,-22.023906661475984]}},{"type":"Feature","properties":{"tipo":"arvore"},"geometry":{"type":"Point","coordinates":[-47.88086327382358,-22.023856160435603]}},{"type":"Feature","properties":{"tipo":"arvore"},"geometry":{"type":"Point","coordinates":[-47.88106069001626,-22.02376018962235]}},{"type":"Feature","properties":{"tipo":"arvore"},"geometry":{"type":"Point","coordinates":[-47.881255547729545,-22.023506000285565]}},{"type":"Feature","properties":{"tipo":"arvore"},"geometry":{"type":"Point","coordinates":[-47.88141631909466,-22.023212158094427]}},{"type":"Feature","properties":{"tipo":"arvore"},"geometry":{"type":"Point","coordinates":[-47.881569329119074,-22.022896060651984]}},{"type":"Feature","properties":{"tipo":"arvore"},"geometry":{"type":"Point","coordinates":[-47.881785234497805,-22.022565709799]}},{"type":"Feature","properties":{"tipo":"arvore"},"geometry":{"type":"Point","coordinates":[-47.88194561748845,-22.02227367948481]}},{"type":"Feature","properties":{"tipo":"arvore"},"geometry":{"type":"Point","coordinates":[-47.882159954395334,-22.021950478501722]}},{"type":"Feature","properties":{"tipo":"arvore"},"geometry":{"type":"Point","coordinates":[-47.882467535990976,-22.021609992385944]}},{"type":"Feature","properties":{"tipo":"arvore"},"geometry":{"type":"Point","coordinates":[-47.882784985389534,-22.021439447762248]}},{"type":"Feature","properties":{"tipo":"arvore"},"geometry":{"type":"Point","coordinates":[-47.883145947918386,-22.021293639549324]}},{"type":"Feature","properties":{"tipo":"arvore"},"geometry":{"type":"Point","coordinates":[-47.88350680948012,-22.021165185152782]}},{"type":"Feature","properties":{"tipo":"arvore"},"geometry":{"type":"Point","coordinates":[-47.88385590604658,-22.021075791771523]}},{"type":"Feature","properties":{"tipo":"arvore"},"geometry":{"type":"Point","coordinates":[-47.884229083976386,-22.021008021304866]}},{"type":"Feature","properties":{"tipo":"arvore"},"geometry":{"type":"Point","coordinates":[-47.884590947661316,-22.020950461562318]}},{"type":"Feature","properties":{"tipo":"arvore"},"geometry":{"type":"Point","coordinates":[-47.88494112199975,-22.02090003972]}},{"type":"Feature","properties":{"tipo":"arvore"},"geometry":{"type":"Point","coordinates":[-47.88526801148541,-22.020837785586693]}},{"type":"Feature","properties":{"tipo":"arvore"},"geometry":{"type":"Point","coordinates":[-47.885592897561246,-22.02073045098715]}},{"type":"Feature","properties":{"tipo":"arvore"},"geometry":{"type":"Point","coordinates":[-47.88597335568118,-22.02061945268499]}},{"type":"Feature","properties":{"tipo":"arvore"},"geometry":{"type":"Point","coordinates":[-47.886378593691376,-22.02057035919733]}},{"type":"Feature","properties":{"tipo":"arvore"},"geometry":{"type":"Point","coordinates":[-47.88670384511423,-22.02056684204024]}},{"type":"Feature","properties":{"tipo":"arvore"},"geometry":{"type":"Point","coordinates":[-47.88696336023089,-22.02046507807807]}},{"type":"Feature","properties":{"tipo":"arvore"},"geometry":{"type":"Point","coordinates":[-47.88735779485588,-22.02030899746564]}},{"type":"Feature","properties":{"tipo":"arvore"},"geometry":{"type":"Point","coordinates":[-47.887760750139115,-22.020292179841277]}},{"type":"Feature","properties":{"tipo":"arvore"},"geometry":{"type":"Point","coordinates":[-47.88812104442878,-22.02029908014231]}},{"type":"Feature","properties":{"tipo":"arvore"},"geometry":{"type":"Point","coordinates":[-47.88848142064541,-22.020305985138478]}},{"type":"Feature","properties":{"tipo":"arvore"},"geometry":{"type":"Point","coordinates":[-47.88881695271762,-22.02030127227663]}},{"type":"Feature","properties":{"tipo":"arvore"},"geometry":{"type":"Point","coordinates":[-47.88917575678301,-22.020267817352117]}},{"type":"Feature","properties":{"tipo":"arvore"},"geometry":{"type":"Point","coordinates":[-47.889536711977705,-22.0202341726869]}},{"type":"Feature","properties":{"tipo":"arvore"},"geometry":{"type":"Point","coordinates":[-47.88991234310562,-22.020213126275728]}},{"type":"Feature","properties":{"tipo":"arvore"},"geometry":{"type":"Point","coordinates":[-47.890272688575976,-22.020209850407813]}},{"type":"Feature","properties":{"tipo":"arvore"},"geometry":{"type":"Point","coordinates":[-47.890634627893206,-22.020209745897613]}},{"type":"Feature","properties":{"tipo":"arvore"},"geometry":{"type":"Point","coordinates":[-47.8909949877564,-22.020209147293187]}},{"type":"Feature","properties":{"tipo":"arvore"},"geometry":{"type":"Point","coordinates":[-47.891355347619566,-22.020208548688764]}},{"type":"Feature","properties":{"tipo":"arvore"},"geometry":{"type":"Point","coordinates":[-47.89171570748275,-22.02020795008434]}},{"type":"Feature","properties":{"tipo":"arvore"},"geometry":{"type":"Point","coordinates":[-47.89208201228325,-22.020214693834696]}},{"type":"Feature","properties":{"tipo":"arvore"},"geometry":{"type":"Point","coordinates":[-47.89244224849029,-22.020224152399773]}},{"type":"Feature","properties":{"tipo":"arvore"},"geometry":{"type":"Point","coordinates":[-47.892802484697334,-22.020233610964848]}},{"type":"Feature","properties":{"tipo":"arvore"},"geometry":{"type":"Point","coordinates":[-47.89296999000706,-22.020337469536543]}},{"type":"Feature","properties":{"tipo":"arvore"},"geometry":{"type":"Point","coordinates":[-47.893161169942644,-22.020032002972783]}},{"type":"Feature","properties":{"tipo":"arvore"},"geometry":{"type":"Point","coordinates":[-47.89340853803412,-22.01968398992446]}},{"type":"Feature","properties":{"tipo":"arvore"},"geometry":{"type":"Point","coordinates":[-47.89360236772799,-22.019480866551305]}},{"type":"Feature","properties":{"tipo":"arvore"},"geometry":{"type":"Point","coordinates":[-47.8937854699548,-22.019170490708415]}},{"type":"Feature","properties":{"tipo":"arvore"},"geometry":{"type":"Point","coordinates":[-47.89396857218161,-22.018860114865518]}},{"type":"Feature","properties":{"tipo":"arvore"},"geometry":{"type":"Point","coordinates":[-47.894275763227775,-22.018532858682462]}},{"type":"Feature","properties":{"tipo":"arvore"},"geometry":{"type":"Point","coordinates":[-47.89457394600033,-22.01833050596198]}},{"type":"Feature","properties":{"tipo":"arvore"},"geometry":{"type":"Point","coordinates":[-47.89487212877284,-22.01812815324153]}},{"type":"Feature","properties":{"tipo":"arvore"},"geometry":{"type":"Point","coordinates":[-47.8951703115454,-22.01792580052104]}},{"type":"Feature","properties":{"tipo":"arvore"},"geometry":{"type":"Point","coordinates":[-47.89546849431794,-22.01772344780057]}},{"type":"Feature","properties":{"tipo":"arvore"},"geometry":{"type":"Point","coordinates":[-47.895776125974194,-22.017521704965375]}},{"type":"Feature","properties":{"tipo":"arvore"},"geometry":{"type":"Point","coordinates":[-47.89608121550561,-22.0173299239258]}},{"type":"Feature","properties":{"tipo":"arvore"},"geometry":{"type":"Point","coordinates":[-47.89638630503701,-22.017138142886232]}},{"type":"Feature","properties":{"tipo":"arvore"},"geometry":{"type":"Point","coordinates":[-47.89672490273524,-22.016959349474497]}},{"type":"Feature","properties":{"tipo":"passarela","name":"Passarela"},"geometry":{"type":"LineString","coordinates":[[-47.87514564007854,-22.0261572089193],[-47.87503683501457,-22.025813667004286]]}},{"type":"Feature","properties":{"tipo":"passarela","name":"Passarela"},"geometry":{"type":"LineString","coordinates":[[-47.8768479251642,-22.02556502837087],[-47.87673644944252,-22.02522234374502]]}},{"type":"Feature","properties":{"tipo":"passarela","name":"Passarela"},"geometry":{"type":"LineString","coordinates":[[-47.87855575582194,-22.024990442818318],[-47.87844283143722,-22.024648232835045]]}},{"type":"Feature","properties":{"tipo":"passarela","name":"Passarela"},"geometry":{"type":"LineString","coordinates":[[-47.880265052202944,-22.024402878640167],[-47.88014100611599,-22.02406454129722]]}},{"type":"Feature","properties":{"tipo":"passarela","name":"Passarela"},"geometry":{"type":"LineString","coordinates":[[-47.881766622891405,-22.02339767723917],[-47.881448164894366,-22.02322902347122]]}},{"type":"Feature","properties":{"tipo":"passarela","name":"Passarela"},"geometry":{"type":"LineString","coordinates":[[-47.88265513507705,-22.02195918672436],[-47.88248459045335,-22.0216417373258]]}},{"type":"Feature","properties":{"tipo":"passarela","name":"Passarela"},"geometry":{"type":"LineString","coordinates":[[-47.88429307409951,-22.021399218655596],[-47.88423490126031,-22.021043584700386]]}},{"type":"Feature","properties":{"tipo":"passarela","name":"Passarela"},"geometry":{"type":"LineString","coordinates":[[-47.88605335656187,-22.021007692252997],[-47.88598062848852,-22.02065474719117]]}},{"type":"Feature","properties":{"tipo":"passarela","name":"Passarela"},"geometry":{"type":"LineString","coordinates":[[-47.88775315980798,-22.020688503559906],[-47.88776006010901,-22.020328209270243]]}},{"type":"Feature","properties":{"tipo":"passarela","name":"Passarela"},"geometry":{"type":"LineString","coordinates":[[-47.88956956865762,-22.020629205016796],[-47.88953969894861,-22.02027008471689]]}},{"type":"Feature","properties":{"tipo":"passarela","name":"Passarela"},"geometry":{"type":"LineString","coordinates":[[-47.891356006084436,-22.020604944538263],[-47.891355407480006,-22.020244584675083]]}},{"type":"Feature","properties":{"tipo":"passarela","name":"Passarela"},"geometry":{"type":"LineString","coordinates":[[-47.893306003227174,-22.020547767465644],[-47.89300053666343,-22.020356587530095]]}},{"type":"Feature","properties":{"tipo":"passarela","name":"Passarela"},"geometry":{"type":"LineString","coordinates":[[-47.89430998560881,-22.019061527315],[-47.893999609765906,-22.0188784250882]]}},{"type":"Feature","properties":{"tipo":"passarela","name":"Passarela"},"geometry":{"type":"LineString","coordinates":[[-47.89569108231044,-22.01805144885037],[-47.89548872958998,-22.017753266077822]]}},{"type":"Feature","properties":{"tipo":"varzea","name":"Parque Alagável da Chaminé — várzea"},"geometry":{"type":"Polygon","coordinates":[[[-47.88069279735261,-22.023274763745853],[-47.88056343391738,-22.023279803879696],[-47.880479368833164,-22.023287476726704],[-47.88039655709253,-22.023303848244037],[-47.88031589630439,-22.023328740978364],[-47.879297337020574,-22.02370217978465],[-47.87721892013437,-22.024388027537633],[-47.877153054431346,-22.02441298389009],[-47.87702737224253,-22.024466957836207],[-47.87678710473144,-22.024542741137196],[-47.87678017962626,-22.02454495959182],[-47.87611617962626,-22.02476095959182],[-47.87607175516103,-22.024776854546467],[-47.87543167775691,-22.025027110373642],[-47.874796814520906,-22.02522818142786],[-47.87450623055313,-22.025302621148],[-47.874233752056966,-22.02536402475277],[-47.874205853051635,-22.025370833176797],[-47.874011853051634,-22.025421833176797],[-47.873935983915985,-22.02544581508875],[-47.873862830749395,-22.02547711799696],[-47.87379309805684,-22.025515440437307],[-47.87372745740227,-22.02556041334374],[-47.87366654094107,-22.025611603602588],[-47.873610935332074,-22.02566851822367],[-47.873561176087684,-22.025730609088075],[-47.873517742416624,-22.02579727822684],[-47.873481052608895,-22.02586788357971],[-47.873451460007395,-22.02594174517854],[-47.87342924960506,-22.026018151695755],[-47.8734146353002,-22.02609636729483],[-47.87340775783656,-22.02617563871679],[-47.873408683447884,-22.0262552025345],[-47.87341740322002,-22.02633429250491],[-47.8734338331768,-22.02641214694836],[-47.873457815088756,-22.02648801608401],[-47.87348911799696,-22.026561169250606],[-47.87352744043731,-22.02663090194316],[-47.873572413343744,-22.02669654259773],[-47.87362360360259,-22.026757459058924],[-47.87368051822367,-22.026813064667923],[-47.873742609088076,-22.026862823912314],[-47.873809278226844,-22.026906257583374],[-47.87387988357971,-22.026942947391106],[-47.87395374517854,-22.026972539992602],[-47.874030151695756,-22.02699475039494],[-47.87410836729483,-22.027009364699797],[-47.87418763871679,-22.027016242163434],[-47.874267202534504,-22.027015316552113],[-47.87434629250491,-22.027006596779977],[-47.874424146948364,-22.0269901668232],[-47.874604257741346,-22.026942818109582],[-47.87487424794303,-22.026881975247232],[-47.874897210439435,-22.02687644798045],[-47.875221210439435,-22.02679344798045],[-47.87526481139398,-22.026780969308774],[-47.87594681139398,-22.026564969308772],[-47.87599724483897,-22.02654714545353],[-47.87664026394283,-22.026295739488113],[-47.877278362795124,-22.02608816516267],[-47.87755389526856,-22.026001258862802],[-47.87762994556866,-22.02597301610991],[-47.87776055521884,-22.02591692607609],[-47.879818079865636,-22.025237972462367],[-47.87984310369561,-22.025229259021636],[-47.88075418920613,-22.024895223790818],[-47.88085756608262,-22.024891196120304],[-47.88095310881962,-22.02488178556362],[-47.88107910881962,-22.02486178556362],[-47.881141741950124,-22.024849297001953],[-47.881203197842005,-22.024831917515108],[-47.88129219784201,-22.024802917515107],[-47.88135838192036,-22.024778111846548],[-47.881422154231295,-22.0247476365159],[-47.88151415423129,-22.024698636515904],[-47.88159226254205,-22.024651200634835],[-47.88166453688349,-22.024595276663298],[-47.881755536883496,-22.0245162766633],[-47.881815516652026,-22.024458546861236],[-47.88189051665202,-22.024378546861236],[-47.88193035363208,-22.024332730539864],[-47.88196665061325,-22.02428406176711],[-47.88213065061325,-22.02404606176711],[-47.88217953049337,-22.023965470977807],[-47.88234953049337,-22.023644470977803],[-47.882364922581274,-22.023613860295743],[-47.88248967299669,-22.02335212903202],[-47.88266725522548,-22.023096080237032],[-47.882719286130474,-22.023010137216588],[-47.88286095350108,-22.022739603743805],[-47.883020027696446,-22.02251277572448],[-47.88307744192465,-22.022448184717753],[-47.88327796960784,-22.02234045441987],[-47.88376280225057,-22.02215979754259],[-47.884139337815355,-22.02206337783947],[-47.88468565382991,-22.021974014174354],[-47.88497837160332,-22.021934535790443],[-47.8850026243463,-22.021930890588578],[-47.8853886243463,-22.021866890588576],[-47.885487776315024,-22.021843977419696],[-47.885782776315025,-22.021755977419698],[-47.88584631797752,-22.021734116853924],[-47.88601469045352,-22.02166826821232],[-47.88611665000317,-22.02163853001034],[-47.88641463816503,-22.021577126389108],[-47.88649168820026,-22.0215572631085],[-47.886566420276544,-22.021529943250908],[-47.886638114683144,-22.021495429921487],[-47.88670608096372,-22.021454055502467],[-47.88676966456585,-22.02140621845212],[-47.88682825314468,-22.021352379467395],[-47.88688128246016,-22.021293057047146],[-47.886928241811006,-22.021228822498706],[-47.886968678953,-22.021160294435894],[-47.88700220445435,-22.02108813282141],[-47.887028495446145,-22.02101303261106],[-47.88704729873178,-22.02093571706091],[-47.88705843322533,-22.020856930761983],[-47.88706179169552,-22.020777432469405],[-47.887057341798474,-22.020697987795188],[-47.887045126389104,-22.020619361834974],[-47.887025263108505,-22.020542311799748],[-47.886997943250904,-22.02046757972346],[-47.88696342992149,-22.020395885316862],[-47.88692205550247,-22.02032791903628],[-47.88687421845212,-22.020264335434153],[-47.886820379467395,-22.02020574685533],[-47.886761057047146,-22.02015271753984],[-47.886696822498706,-22.020105758188993],[-47.886628294435894,-22.020065321047007],[-47.88655613282141,-22.02003179554566],[-47.88648103261106,-22.020005504553854],[-47.88640371706091,-22.01998670126822],[-47.88632493076199,-22.019975566774676],[-47.8862454324694,-22.019972208304477],[-47.88616598779519,-22.019976658201532],[-47.886087361834974,-22.019988873610895],[-47.885757361834976,-22.020056873610894],[-47.88569397297297,-22.020072621621622],[-47.88552597297297,-22.020121621621623],[-47.88545768202248,-22.020144883146077],[-47.88528699953415,-22.020211635208344],[-47.885073079290144,-22.020275448704858],[-47.88474947445733,-22.020329103392168],[-47.88445762839668,-22.020368464209557],[-47.88443511111176,-22.020371823600783],[-47.88384211111176,-22.020468823600783],[-47.883771864892175,-22.02048353272549],[-47.883318864892175,-22.020599532725488],[-47.88323689328563,-22.020625220585163],[-47.88265989328563,-22.020840220585164],[-47.88255927459667,-22.020885738853238],[-47.88218327459668,-22.02108773885324],[-47.88212212708177,-22.021124134041603],[-47.88206440612992,-22.021165750384927],[-47.88201055632758,-22.021212267339934],[-47.88196099244432,-22.02126332661716],[-47.881776992444316,-22.02147032661716],[-47.881719163179795,-22.021543452100133],[-47.8815031631798,-22.021851452100133],[-47.88144871386953,-22.021940862783413],[-47.881306061939526,-22.02221327640878],[-47.88111974477452,-22.022481919762967],[-47.881084622795065,-22.022537202522955],[-47.881054077418725,-22.022595139704254],[-47.880908450009386,-22.022900671719935],[-47.88076856333921,-22.023164810667737],[-47.88069279735261,-22.023274763745853]]]}},{"type":"Feature","properties":{"tipo":"lago","name":"Lago permanente"},"geometry":{"type":"Polygon","coordinates":[[[-47.87448035830801,-22.02643511310563],[-47.87475937704641,-22.02637223564346],[-47.874767541489575,-22.02637027039305],[-47.875091541489574,-22.02628727039305],[-47.87510704405119,-22.026282833532008],[-47.87578904405119,-22.026066833532006],[-47.875806975942744,-22.026060496161254],[-47.876464160512974,-22.025803551818008],[-47.87711895121632,-22.02559054761331],[-47.87739671831771,-22.02550293648455],[-47.87742375842441,-22.025492894616853],[-47.87757524185558,-22.025427840382612],[-47.87965433950778,-22.02474176798662],[-47.879663236869554,-22.02473866987436],[-47.88065160060663,-22.02437630179229],[-47.88083722349604,-22.024369069731662],[-47.88087119424697,-22.024365723755952],[-47.88099719424697,-22.024345723755953],[-47.88101946380449,-22.024341283378472],[-47.88104131478827,-22.02433510400537],[-47.88113031478827,-22.02430610400537],[-47.88115384690502,-22.024297284212103],[-47.881176521504464,-22.024286448538987],[-47.88126852150446,-22.02423744853899],[-47.881296293348285,-22.024220582447942],[-47.881321990891905,-22.024200698369174],[-47.88141299089191,-22.024121698369175],[-47.88143431703183,-22.02410117221733],[-47.88150931703183,-22.024021172217328],[-47.8815234812914,-22.02400488196973],[-47.88153638688471,-22.023987577517197],[-47.88170038688471,-22.023749577517197],[-47.88171776639764,-22.02372092301433],[-47.88188776639765,-22.023399923014328],[-47.88189323914001,-22.023389039216262],[-47.88203619484328,-22.023089112544696],[-47.882237890746836,-22.02279829519539],[-47.88225639062417,-22.022767737677007],[-47.88241373902262,-22.022467259108893],[-47.882609498736514,-22.022188120257592],[-47.8827484904621,-22.022031754566306],[-47.88306210030499,-22.021863272682626],[-47.88360632968908,-22.021660483570702],[-47.88403214233435,-22.021551445454033],[-47.884608543583965,-22.02145716059533],[-47.88490853212562,-22.02141670161438],[-47.88491715532313,-22.021415405542605],[-47.88530315532313,-22.021351405542603],[-47.88533840935645,-22.021343258638115],[-47.88563340935645,-22.021255258638117],[-47.88565600194756,-22.021247485992507],[-47.88584604549458,-22.021173162031047],[-47.88599056444558,-22.02113101067034],[-47.886309182458675,-22.021065356049462],[-47.88633657802676,-22.02105829354969],[-47.88636314943166,-22.021048579822544],[-47.88638864077623,-22.02103630841653],[-47.88641280656488,-22.02102159751199],[-47.88643541406786,-22.021004588782976],[-47.886456245562556,-22.020985446032853],[-47.88647510043028,-22.020964353616765],[-47.88649179708836,-22.02094151466621],[-47.88650617473884,-22.020917149132764],[-47.8865180949171,-22.020891491669836],[-47.8865274428253,-22.020864789372823],[-47.886534128437965,-22.020837299399435],[-47.886538087369004,-22.02080928649315],[-47.88653928149174,-22.020781020433567],[-47.886537699306125,-22.02075277343829],[-47.88653335604946,-22.020724817541325],[-47.88652629354969,-22.020697421973246],[-47.88651657982255,-22.020670850568344],[-47.88650430841653,-22.020645359223774],[-47.88648959751199,-22.020621193435122],[-47.88647258878298,-22.020598585932145],[-47.88645344603285,-22.02057775443745],[-47.88643235361676,-22.02055889956972],[-47.886409514666205,-22.020542202911642],[-47.886385149132764,-22.02052782526116],[-47.886359491669836,-22.020515905082902],[-47.88633278937282,-22.020506557174706],[-47.88630529939944,-22.020499871562034],[-47.88627728649315,-22.020495912630995],[-47.88624902043357,-22.02049471850826],[-47.88622077343829,-22.02049630069388],[-47.88619281754133,-22.02050064395054],[-47.88586281754133,-22.02056864395054],[-47.885840279279286,-22.020574243243242],[-47.885672279279284,-22.020623243243243],[-47.88564799805244,-22.020631514007494],[-47.88545713316771,-22.020706159185185],[-47.88519096152537,-22.020785559539508],[-47.88482714647376,-22.020845881206096],[-47.88452746787438,-22.02088629838562],[-47.88451946172863,-22.020887492835833],[-47.88392646172863,-22.020984492835833],[-47.88390148529499,-22.02098972274684],[-47.88344848529499,-22.02110572274684],[-47.88341933983489,-22.021114856208058],[-47.88284233983489,-22.02132985620806],[-47.88280656430104,-22.021346040481152],[-47.882430564301046,-22.021548040481154],[-47.88240882296241,-22.021560980992568],[-47.882388299957306,-22.02157577791464],[-47.88236915336092,-22.021592317276422],[-47.88235153064687,-22.021610471686103],[-47.88216753064687,-22.021817471686102],[-47.882146969130595,-22.021843471857824],[-47.8819309691306,-22.022151471857825],[-47.881911609375834,-22.022183262322994],[-47.881753910911826,-22.022484409389797],[-47.881549109253164,-22.02277970480461],[-47.881536621438244,-22.02279936089705],[-47.88152576085999,-22.022819960783735],[-47.88137538222555,-22.02313546105599],[-47.88121608918727,-22.023436243792972],[-47.88107388760614,-22.02364260950217],[-47.881023818471725,-22.023696016578885],[-47.88096866287209,-22.023743898912628],[-47.88092772270105,-22.023765704003726],[-47.88088432625737,-22.02377984441796],[-47.88079769190835,-22.02379359590193],[-47.88058377650396,-22.023801930268338],[-47.880553886696234,-22.023804658391718],[-47.88052444252179,-22.02381047937566],[-47.88049576313045,-22.02381933012564],[-47.879469186496145,-22.024195708367895],[-47.87738266049222,-22.02488423201338],[-47.87735924157559,-22.024893105383146],[-47.87720951013068,-22.024957407230648],[-47.87694428168229,-22.02504106351545],[-47.87694181942267,-22.025041852299314],[-47.87627781942267,-22.025257852299312],[-47.876262024057255,-22.025263503838744],[-47.87560588542466,-22.02552003924397],[-47.874940645163,-22.02573073117435],[-47.8746285264189,-22.02581068751929],[-47.87434862295359,-22.02587376435654],[-47.874338703307245,-22.02587618512953],[-47.874144703307245,-22.02592718512953],[-47.874117727614575,-22.025935712031554],[-47.87409171759978,-22.025946841954475],[-47.87406692375354,-22.02596046771104],[-47.87404358485414,-22.025976458077775],[-47.87402192566794,-22.025994659058696],[-47.87400215478474,-22.026014895368416],[-47.87398446260895,-22.026036972120203],[-47.87396901952591,-22.026060676702876],[-47.87395597426094,-22.02608578082834],[-47.873945452447074,-22.026112042730148],[-47.87393755541513,-22.026139209491824],[-47.87393235921785,-22.026167019482607],[-47.87392991389744,-22.02619520487708],[-47.87393024300369,-22.02622349423449],[-47.87393334336712,-22.026251615112855],[-47.87393918512953,-22.02627929669275],[-47.87394771203156,-22.026306272385426],[-47.873958841954476,-22.026332282400215],[-47.87397246771104,-22.026357076246455],[-47.873988458077775,-22.02638041514586],[-47.8740066590587,-22.02640207433206],[-47.87402689536842,-22.02642184521526],[-47.87404897212021,-22.026439537391045],[-47.87407267670287,-22.02645498047409],[-47.87409778082834,-22.02646802573906],[-47.874124042730145,-22.026478547552923],[-47.87415120949182,-22.026486444584865],[-47.874179019482604,-22.02649164078215],[-47.87420720487708,-22.026494086102552],[-47.87423549423449,-22.026493756996306],[-47.87426361511286,-22.02649065663288],[-47.87429129669275,-22.026484814870468],[-47.87448035830801,-22.02643511310563]]]}}]}